QIANFAN-49              
1 62250U 24232P   25236.92815753  .00000051  00000+0  60204-4 0  9997
2 62250  88.9939  52.3205 0015259 146.2282 213.9845 13.50957888 53012
QIANFAN-50              
1 62251U 24232Q   25236.95295861  .00000028  00000+0  24150-4 0  9997
2 62251  88.9945  52.3201 0016868 148.0371 212.1807 13.50964413 53046
QIANFAN-51              
1 62252U 24232R   25236.93651858  .00000044  00000+0  49554-4 0  9991
2 62252  88.9938  52.3225 0014256 150.4933 209.7026 13.50966974 53033
QIANFAN-52              
1 62253U 24232S   25236.89123499  .00000050  00000+0  58134-4 0  9993
2 62253  88.9934  52.2048 0016476 144.2429 215.9829 13.50961404 53111
QIANFAN-53              
1 62254U 24232T   25236.94473643  .00000031  00000+0  28760-4 0  9990
2 62254  88.9942  52.2957 0015339 144.7224 215.4945 13.50965491 53085
QIANFAN-54              
1 62255U 24232U   25236.91182788  .00000067  00000+0  85377-4 0  9991
2 62255  88.9933  51.9870 0002586 145.3541 214.7779 13.50967658 84588
QIANFAN-55              
1 62785U 25016A   25236.93763106  .00000103  00000+0  14131-3 0  9991
2 62785  88.9813 114.5474 0016198 311.5027  48.4733 13.50968097 32368
QIANFAN-56              
1 62786U 25016B   25236.95423280  .00000108  00000+0  14903-3 0  9992
2 62786  88.9786 114.4120 0014929 314.5730  45.4201 13.50959831 32418
